start=new Date('2022-07-15T00:00:00.000Z').valueOf();
sats=[{"APOAPSIS":"541.228","REV_AT_EPOCH":"130","ELEMENT_SET_NO":"999","MEAN_MOTION":"15.08809940","CLASSIFICATION_TYPE":"U","TLE_LINE2":"2 51809  53.2159 206.6620 0002010  41.0701  94.7095 15.08809940  1300","REF_FRAME":"TEME","OBJECT_TYPE":"PAYLOAD","TLE_LINE1":"1 51809U 22017AT  22195.91667824  .00038865  00000-0  24486-2 0  9993","EPHEMERIS_TYPE":"0","CENTER_NAME":"EARTH","EPOCH":"2022-07-14T22:00:00.999936","OBJECT_ID":"2022-017AT","MEAN_MOTION_DDOT":"0.0000000000000","GP_ID":"208136732","COUNTRY_CODE":"US","RCS_SIZE":"LARGE","PERIAPSIS":"538.447","OBJECT_NAME":"STARLINK-3607","INCLINATION":"53.2159","MEAN_MOTION_DOT":"0.00038865","SEMIMAJOR_AXIS":"6917.972","MEAN_ANOMALY":"94.7095","DECAY_DATE":null,"FILE":"3513976","ARG_OF_PERICENTER":"41.0701","NORAD_CAT_ID":"51809","SITE":"AFWTR","MEAN_ELEMENT_THEORY":"SGP4","PERIOD":"95.439","ECCENTRICITY":"0.00020100","RA_OF_ASC_NODE":"206.6620","LAUNCH_DATE":"2022-02-25","TIME_SYSTEM":"UTC","BSTAR":"0.00244860000000"},{"MEAN_MOTION_DDOT":"0.0000000000000","GP_ID":"208108310","RCS_SIZE":"LARGE","COUNTRY_CODE":"US","INCLINATION":"53.2157","PERIAPSIS":"539.048","OBJECT_NAME":"STARLINK-3613","MEAN_MOTION_DOT":"0.00042875","SEMIMAJOR_AXIS":"6918.006","APOAPSIS":"540.695","REV_AT_EPOCH":"2284","TLE_LINE2":"2 51810  53.2157 196.6446 0001190  89.9188 335.6793 15.08798779 22843","CLASSIFICATION_TYPE":"U","MEAN_MOTION":"15.08798779","ELEMENT_SET_NO":"999","REF_FRAME":"TEME","EPHEMERIS_TYPE":"0","TLE_LINE1":"1 51810U 22017AU  22195.91667824  .00042875  00000-0  26987-2 0  9999","CENTER_NAME":"EARTH","OBJECT_TYPE":"PAYLOAD","EPOCH":"2022-07-14T22:00:00.999936","OBJECT_ID":"2022-017AU","RA_OF_ASC_NODE":"196.6446","ECCENTRICITY":"0.00011900","LAUNCH_DATE":"2022-02-25","TIME_SYSTEM":"UTC","BSTAR":"0.00269870000000","MEAN_ANOMALY":"335.6793","DECAY_DATE":null,"FILE":"3513781","ARG_OF_PERICENTER":"89.9188","PERIOD":"95.440","NORAD_CAT_ID":"51810","SITE":"AFWTR","MEAN_ELEMENT_THEORY":"SGP4"},{"REF_FRAME":"TEME","OBJECT_TYPE":"PAYLOAD","EPHEMERIS_TYPE":"0","TLE_LINE1":"1 51811U 22017AV  22195.91667824  .00037202  00000-0  23439-2 0  9997","CENTER_NAME":"EARTH","EPOCH":"2022-07-14T22:00:00.999936","OBJECT_ID":"2022-017AV","APOAPSIS":"541.270","REV_AT_EPOCH":"130","MEAN_MOTION":"15.08829450","ELEMENT_SET_NO":"999","CLASSIFICATION_TYPE":"U","TLE_LINE2":"2 51811  53.2158 206.6622 0002157  48.1627 127.5640 15.08829450  1300","PERIAPSIS":"538.285","OBJECT_NAME":"STARLINK-3569","INCLINATION":"53.2158","MEAN_MOTION_DOT":"0.00037202","SEMIMAJOR_AXIS":"6917.913","MEAN_MOTION_DDOT":"0.0000000000000","GP_ID":"208135736","RCS_SIZE":"LARGE","COUNTRY_CODE":"US","FILE":"3513976","ARG_OF_PERICENTER":"48.1627","SITE":"AFWTR","NORAD_CAT_ID":"51811","MEAN_ELEMENT_THEORY":"SGP4","PERIOD":"95.438","MEAN_ANOMALY":"127.5640","DECAY_DATE":null,"LAUNCH_DATE":"2022-02-25","TIME_SYSTEM":"UTC","BSTAR":"0.00234390000000","RA_OF_ASC_NODE":"206.6622","ECCENTRICITY":"0.00021570"},{"RA_OF_ASC_NODE":"196.6436","ECCENTRICITY":"0.00013130","LAUNCH_DATE":"2022-02-25","TIME_SYSTEM":"UTC","BSTAR":"0.00171970000000","MEAN_ANOMALY":"51.1481","DECAY_DATE":null,"FILE":"3513775","ARG_OF_PERICENTER":"79.6014","NORAD_CAT_ID":"51812","SITE":"AFWTR","MEAN_ELEMENT_THEORY":"SGP4","PERIOD":"95.437","MEAN_MOTION_DDOT":"0.0000000000000","GP_ID":"208108320","COUNTRY_CODE":"US","RCS_SIZE":"LARGE","PERIAPSIS":"538.834","INCLINATION":"53.2155","OBJECT_NAME":"STARLINK-3610","MEAN_MOTION_DOT":"0.00027188","SEMIMAJOR_AXIS":"6917.878","APOAPSIS":"540.651","REV_AT_EPOCH":"2284","ELEMENT_SET_NO":"999","MEAN_MOTION":"15.08840896","CLASSIFICATION_TYPE":"U","TLE_LINE2":"2 51812  53.2155 196.6436 0001313  79.6014  51.1481 15.08840896 22845","REF_FRAME":"TEME","OBJECT_TYPE":"PAYLOAD","TLE_LINE1":"1 51812U 22017AW  22195.91667824  .00027188  00000-0  17197-2 0  9994","CENTER_NAME":"EARTH","EPHEMERIS_TYPE":"0","EPOCH":"2022-07-14T22:00:00.999936","OBJECT_ID":"2022-017AW"},{"ELEMENT_SET_NO":"999","MEAN_MOTION":"15.08814271","TLE_LINE2":"2 51813  53.2141 196.6554 0001763  52.9961 192.5095 15.08814271 22845","CLASSIFICATION_TYPE":"U","REV_AT_EPOCH":"2284","APOAPSIS":"541.044","OBJECT_ID":"2022-017AX","EPOCH":"2022-07-14T22:00:00.999936","OBJECT_TYPE":"PAYLOAD","EPHEMERIS_TYPE":"0","TLE_LINE1":"1 51813U 22017AX  22195.91667824  .00038440  00000-0  24219-2 0  9991","CENTER_NAME":"EARTH","REF_FRAME":"TEME","COUNTRY_CODE":"US","RCS_SIZE":"LARGE","GP_ID":"208108392","MEAN_MOTION_DDOT":"0.0000000000000","SEMIMAJOR_AXIS":"6917.959","MEAN_MOTION_DOT":"0.00038440","OBJECT_NAME":"STARLINK-3552","PERIAPSIS":"538.604","INCLINATION":"53.2141","DECAY_DATE":null,"MEAN_ANOMALY":"192.5095","SITE":"AFWTR","MEAN_ELEMENT_THEORY":"SGP4","NORAD_CAT_ID":"51813","PERIOD":"95.439","FILE":"3513779","ARG_OF_PERICENTER":"52.9961","RA_OF_ASC_NODE":"196.6554","ECCENTRICITY":"0.00017630","BSTAR":"0.00242190000000","TIME_SYSTEM":"UTC","LAUNCH_DATE":"2022-02-25"},{"OBJECT_ID":"2022-017AY","EPOCH":"2022-07-14T22:00:00.999936","CENTER_NAME":"EARTH","TLE_LINE1":"1 51814U 22017AY  22195.91667824  .00018096  00000-0  11522-2 0  9990","EPHEMERIS_TYPE":"0","OBJECT_TYPE":"PAYLOAD","REF_FRAME":"TEME","TLE_LINE2":"2 51814  53.2165 196.6424 0001567  82.3690  88.4331 15.08838224  1304","CLASSIFICATION_TYPE":"U","MEAN_MOTION":"15.08838224","ELEMENT_SET_NO":"999","REV_AT_EPOCH":"130","APOAPSIS":"540.835","SEMIMAJOR_AXIS":"6917.886","MEAN_MOTION_DOT":"0.00018096","PERIAPSIS":"538.667","OBJECT_NAME":"STARLINK-3599","INCLINATION":"53.2165","COUNTRY_CODE":"US","RCS_SIZE":"LARGE","GP_ID":"208135986","MEAN_MOTION_DDOT":"0.0000000000000","PERIOD":"95.438","MEAN_ELEMENT_THEORY":"SGP4","SITE":"AFWTR","NORAD_CAT_ID":"51814","ARG_OF_PERICENTER":"82.3690","FILE":"3513976","DECAY_DATE":null,"MEAN_ANOMALY":"88.4331","BSTAR":"0.00115220000000","TIME_SYSTEM":"UTC","LAUNCH_DATE":"2022-02-25","RA_OF_ASC_NODE":"196.6424","ECCENTRICITY":"0.00015670"},{"MEAN_ANOMALY":"65.9046","DECAY_DATE":null,"FILE":"3513976","ARG_OF_PERICENTER":"84.8928","SITE":"AFWTR","NORAD_CAT_ID":"51815","MEAN_ELEMENT_THEORY":"SGP4","PERIOD":"95.439","ECCENTRICITY":"0.00012400","RA_OF_ASC_NODE":"196.6435","LAUNCH_DATE":"2022-02-25","TIME_SYSTEM":"UTC","BSTAR":"0.00234720000000","APOAPSIS":"540.661","REV_AT_EPOCH":"130","ELEMENT_SET_NO":"999","MEAN_MOTION":"15.08821166","CLASSIFICATION_TYPE":"U","TLE_LINE2":"2 51815  53.2170 196.6435 0001240  84.8928  65.9046 15.08821166  1302","REF_FRAME":"TEME","OBJECT_TYPE":"PAYLOAD","TLE_LINE1":"1 51815U 22017AZ  22195.91667824  .00037246  00000-0  23472-2 0  9996","EPHEMERIS_TYPE":"0","CENTER_NAME":"EARTH","EPOCH":"2022-07-14T22:00:00.999936","OBJECT_ID":"2022-017AZ","MEAN_MOTION_DDOT":"0.0000000000000","GP_ID":"208136237","COUNTRY_CODE":"US","RCS_SIZE":"LARGE","OBJECT_NAME":"STARLINK-3604","PERIAPSIS":"538.945","INCLINATION":"53.2170","MEAN_MOTION_DOT":"0.00037246","SEMIMAJOR_AXIS":"6917.938"},{"APOAPSIS":"540.753","ELEMENT_SET_NO":"999","MEAN_MOTION":"15.08843527","CLASSIFICATION_TYPE":"U","TLE_LINE2":"2 51816  53.2163 196.6435 0001472  91.0654  99.7492 15.08843527  1303","REV_AT_EPOCH":"130","OBJECT_TYPE":"PAYLOAD","EPHEMERIS_TYPE":"0","TLE_LINE1":"1 51816U 22017BA  22195.91667824 -.00007527  00000-0 -45527-3 0  9994","CENTER_NAME":"EARTH","REF_FRAME":"TEME","OBJECT_ID":"2022-017BA","EPOCH":"2022-07-14T22:00:00.999936","MEAN_MOTION_DDOT":"0.0000000000000","RCS_SIZE":"LARGE","COUNTRY_CODE":"US","GP_ID":"208136987","MEAN_MOTION_DOT":"-0.00007527","PERIAPSIS":"538.716","OBJECT_NAME":"STARLINK-3603","INCLINATION":"53.2163","SEMIMAJOR_AXIS":"6917.870","MEAN_ANOMALY":"99.7492","DECAY_DATE":null,"FILE":"3513976","ARG_OF_PERICENTER":"91.0654","SITE":"AFWTR","NORAD_CAT_ID":"51816","MEAN_ELEMENT_THEORY":"SGP4","PERIOD":"95.437","ECCENTRICITY":"0.00014720","RA_OF_ASC_NODE":"196.6435","TIME_SYSTEM":"UTC","LAUNCH_DATE":"2022-02-25","BSTAR":"-0.00045527000000"},{"SITE":"AFWTR","NORAD_CAT_ID":"51817","MEAN_ELEMENT_THEORY":"SGP4","PERIOD":"91.329","ARG_OF_PERICENTER":"278.6195","FILE":"3513725","DECAY_DATE":null,"MEAN_ANOMALY":"81.3865","BSTAR":"0.00001861600000","LAUNCH_DATE":"2022-02-25","TIME_SYSTEM":"UTC","RA_OF_ASC_NODE":"171.2661","ECCENTRICITY":"0.00084900","EPOCH":"2022-07-14T07:22:39.625248","OBJECT_ID":"2022-017BB","REF_FRAME":"TEME","OBJECT_TYPE":"PAYLOAD","TLE_LINE1":"1 51817U 22017BB  22195.30740307  .00002385  00000-0  18616-4 0  9991","EPHEMERIS_TYPE":"0","CENTER_NAME":"EARTH","REV_AT_EPOCH":"2313","MEAN_MOTION":"15.76723700","ELEMENT_SET_NO":"999","CLASSIFICATION_TYPE":"U","TLE_LINE2":"2 51817  53.2099 171.2661 0008490 278.6195  81.3865 15.76723700 23133","APOAPSIS":"345.436","SEMIMAJOR_AXIS":"6717.868","PERIAPSIS":"334.029","INCLINATION":"53.2099","OBJECT_NAME":"STARLINK-3596","MEAN_MOTION_DOT":"0.00002385","GP_ID":"208106012","COUNTRY_CODE":"US","RCS_SIZE":"LARGE","MEAN_MOTION_DDOT":"0.0000000000000"},{"EPOCH":"2022-07-14T22:00:00.999936","OBJECT_ID":"2022-022A","REF_FRAME":"TEME","CENTER_NAME":"EARTH","TLE_LINE1":"1 51852U 22022A   22195.91667824  .00013226  00000-0  84825-3 0  9995","EPHEMERIS_TYPE":"0","OBJECT_TYPE":"PAYLOAD","REV_AT_EPOCH":"130","CLASSIFICATION_TYPE":"U","TLE_LINE2":"2 51852  53.2146 246.6604 0001845  41.5148 354.2532 15.08808033  1307","ELEMENT_SET_NO":"999","MEAN_MOTION":"15.08808033","APOAPSIS":"541.119","SEMIMAJOR_AXIS":"6917.978","INCLINATION":"53.2146","PERIAPSIS":"538.567","OBJECT_NAME":"STARLINK-3542","MEAN_MOTION_DOT":"0.00013226","GP_ID":"208136241","COUNTRY_CODE":"US","RCS_SIZE":"LARGE","MEAN_MOTION_DDOT":"0.0000000000000","PERIOD":"95.440","NORAD_CAT_ID":"51852","SITE":"AFETR","MEAN_ELEMENT_THEORY":"SGP4","ARG_OF_PERICENTER":"41.5148","FILE":"3513976","DECAY_DATE":null,"MEAN_ANOMALY":"354.2532","BSTAR":"0.00084825000000","LAUNCH_DATE":"2022-03-03","TIME_SYSTEM":"UTC","ECCENTRICITY":"0.00018450","RA_OF_ASC_NODE":"246.6604"}];
